IXPE                    
1 49954U 21121A   24174.00001157  .00003885  00000+0  25102-3 0  9996
2 49954   0.2324 357.5519 0009191 350.9532 157.9594 14.98271623  5510
